[{"OBJECT_NAME":"STARLINK-4773","OBJECT_ID":"2022-114W","EPOCH":"2026-03-09T22:01:18.108480","MEAN_MOTION":15.08828883,"ECCENTRICITY":0.00013288,"INCLINATION":53.2171,"RA_OF_ASC_NODE":293.2646,"ARG_OF_PERICENTER":95.1019,"MEAN_ANOMALY":265.0124,"EPHEMERIS_TYPE":0,"CLASSIFICATION_TYPE":"U","NORAD_CAT_ID":53838,"ELEMENT_SET_NO":999,"REV_AT_EPOCH":19300,"BSTAR":0.00011868593,"MEAN_MOTION_DOT":1.601e-5,"MEAN_MOTION_DDOT":0},{"OBJECT_NAME":"UPPER FREE FLYER","OBJECT_ID":"2018-099F","EPOCH":"2026-03-09T16:53:56.769792","MEAN_MOTION":15.10728091,"ECCENTRICITY":0.00115819,"INCLINATION":97.4495,"RA_OF_ASC_NODE":120.4613,"ARG_OF_PERICENTER":289.4209,"MEAN_ANOMALY":70.5769,"EPHEMERIS_TYPE":0,"CLASSIFICATION_TYPE":"U","NORAD_CAT_ID":43763,"ELEMENT_SET_NO":999,"REV_AT_EPOCH":39752,"BSTAR":0.00029221901,"MEAN_MOTION_DOT":4.788e-5,"MEAN_MOTION_DDOT":0}]
